{"type": "FeatureCollection", "features": [ {"type": "Feature", "properties": {"norad_id": 33917, "name": "COSMOS 2251 DEB", "group": "cosmos-2251-debris", "lat": 25.82409646433733, "lon": 138.7313245745805, "alt_km": 1219.0059082538728, "timestamp": "2025-12-07T14:37:05.596599+00:00", "meta": {"OBJECT_NAME": "COSMOS 2251 DEB", "OBJECT_ID": "1993-036DW", "EPOCH": "2025-12-06T17:26:24.636192", "MEAN_MOTION": 13.69344146, "ECCENTRICITY": 0.03311498, "INCLINATION": 74.1065, "RA_OF_ASC_NODE": 132.2526, "ARG_OF_PERICENTER": 234.5293, "MEAN_ANOMALY": 122.4508, "EPHEMERIS_TYPE": 0, "CLASSIFICATION_TYPE": "U", "NORAD_CAT_ID": 33917, "ELEMENT_SET_NO": 999, "REV_AT_EPOCH": 83651, "BSTAR": 0.00110582, "MEAN_MOTION_DOT": 1.388e-05, "MEAN_MOTION_DDOT": 0}, "tle": {"line1": "1 33917U 93036DW  25340.72667403  .00001388  00000+0  11058-2 0  9999", "line2": "2 33917  74.1065 132.2526 0331149 234.5293 122.4508 13.69344146836514"}}, "geometry": {"type": "Point", "coordinates": [138.7313245745805, 25.82409646433733]}}, {"type": "Feature", "properties": {"norad_id": 33920, "name": "COSMOS 2251 DEB", "group": "cosmos-2251-debris", "lat": -73.82816408142963, "lon": -151.59220203153237, "alt_km": 687.9810189315285, "timestamp": "2025-12-07T14:37:05.596609+00:00", "meta": {"OBJECT_NAME": "COSMOS 2251 DEB", "OBJECT_ID": "1993-036DZ", "EPOCH": "2025-12-05T23:31:13.622592", "MEAN_MOTION": 14.58081418, "ECCENTRICITY": 0.00386381, "INCLINATION": 74.0606, "RA_OF_ASC_NODE": 311.2693, "ARG_OF_PERICENTER": 319.2446, "MEAN_ANOMALY": 40.5829, "EPHEMERIS_TYPE": 0, "CLASSIFICATION_TYPE": "U", "NORAD_CAT_ID": 33920, "ELEMENT_SET_NO": 999, "REV_AT_EPOCH": 88016, "BSTAR": 0.0032522001, "MEAN_MOTION_DOT": 0.00015127, "MEAN_MOTION_DDOT": 0}, "tle": {"line1": "1 33920U 93036DZ  25339.98001878  .00015127  00000+0  32522-2 0  9992", "line2": "2 33920  74.0606 311.2693 0038638 319.2446  40.5829 14.58081418880165"}}, "geometry": {"type": "Point", "coordinates": [-151.59220203153237, -73.82816408142963]}}, {"type": "Feature", "properties": {"norad_id": 33922, "name": "COSMOS 2251 DEB", "group": "cosmos-2251-debris", "lat": -28.8655177081719, "lon": -13.54393510109075, "alt_km": 724.1872998417157, "timestamp": "2025-12-07T14:37:05.596619+00:00", "meta": {"OBJECT_NAME": "COSMOS 2251 DEB", "OBJECT_ID": "1993-036EB", "EPOCH": "2025-12-06T21:36:24.425280", "MEAN_MOTION": 14.49475757, "ECCENTRICITY": 0.00232907, "INCLINATION": 74.0462, "RA_OF_ASC_NODE": 158.7118, "ARG_OF_PERICENTER": 270.026, "MEAN_ANOMALY": 203.0883, "EPHEMERIS_TYPE": 0, "CLASSIFICATION_TYPE": "U", "NORAD_CAT_ID": 33922, "ELEMENT_SET_NO": 999, "REV_AT_EPOCH": 88493, "BSTAR": 0.00077395399, "MEAN_MOTION_DOT": 2.948e-05, "MEAN_MOTION_DDOT": 0}, "tle": {"line1": "1 33922U 93036EB  25340.90028270  .00002948  00000+0  77395-3 0  9998", "line2": "2 33922  74.0462 158.7118 0023290 270.0260 203.0883 14.49475757884937"}}, "geometry": {"type": "Point", "coordinates": [-13.54393510109075, -28.8655177081719]}}, {"type": "Feature", "properties": {"norad_id": 33924, "name": "COSMOS 2251 DEB", "group": "cosmos-2251-debris", "lat": 9.79958844323546, "lon": 95.59202546684836, "alt_km": 1315.4456308699937, "timestamp": "2025-12-07T14:37:05.596629+00:00", "meta": {"OBJECT_NAME": "COSMOS 2251 DEB", "OBJECT_ID": "1993-036ED", "EPOCH": "2025-12-06T21:44:53.609856", "MEAN_MOTION": 13.50207617, "ECCENTRICITY": 0.04040707, "INCLINATION": 73.9144, "RA_OF_ASC_NODE": 279.5779, "ARG_OF_PERICENTER": 316.0573, "MEAN_ANOMALY": 40.9043, "EPHEMERIS_TYPE": 0, "CLASSIFICATION_TYPE": "U", "NORAD_CAT_ID": 33924, "ELEMENT_SET_NO": 999, "REV_AT_EPOCH": 82660, "BSTAR": 0.0018126653, "MEAN_MOTION_DOT": 1.899e-05, "MEAN_MOTION_DDOT": 0}, "tle": {"line1": "1 33924U 93036ED  25340.90617604  .00001899  00000+0  18127-2 0  9996", "line2": "2 33924  73.9144 279.5779 0404070 316.0573  40.9043 13.50207617826601"}}, "geometry": {"type": "Point", "coordinates": [95.59202546684836, 9.79958844323546]}}, {"type": "Feature", "properties": {"norad_id": 33928, "name": "COSMOS 2251 DEB", "group": "cosmos-2251-debris", "lat": 73.6170225158276, "lon": 163.48730938556784, "alt_km": 730.8296117993486, "timestamp": "2025-12-07T14:37:05.596639+00:00", "meta": {"OBJECT_NAME": "COSMOS 2251 DEB", "OBJECT_ID": "1993-036EH", "EPOCH": "2025-12-06T14:58:08.864544", "MEAN_MOTION": 14.47387211, "ECCENTRICITY": 0.00611612, "INCLINATION": 73.926, "RA_OF_ASC_NODE": 64.0794, "ARG_OF_PERICENTER": 359.531, "MEAN_ANOMALY": 0.578, "EPHEMERIS_TYPE": 0, "CLASSIFICATION_TYPE": "U", "NORAD_CAT_ID": 33928, "ELEMENT_SET_NO": 999, "REV_AT_EPOCH": 88556, "BSTAR": 0.0004601036, "MEAN_MOTION_DOT": 1.698e-05, "MEAN_MOTION_DDOT": 0}, "tle": {"line1": "1 33928U 93036EH  25340.62371371  .00001698  00000+0  46010-3 0  9997", "line2": "2 33928  73.9260  64.0794 0061161 359.5310   0.5780 14.47387211885565"}}, "geometry": {"type": "Point", "coordinates": [163.48730938556784, 73.6170225158276]}}, {"type": "Feature", "properties": {"norad_id": 33932, "name": "COSMOS 2251 DEB", "group": "cosmos-2251-debris", "lat": 28.177400523606156, "lon": -25.797634468326315, "alt_km": 736.7590655983122, "timestamp": "2025-12-07T14:37:05.596650+00:00", "meta": {"OBJECT_NAME": "COSMOS 2251 DEB", "OBJECT_ID": "1993-036EM", "EPOCH": "2025-12-06T23:27:48.768192", "MEAN_MOTION": 14.38731777, "ECCENTRICITY": 0.00350121, "INCLINATION": 74.0345, "RA_OF_ASC_NODE": 326.5449, "ARG_OF_PERICENTER": 44.3448, "MEAN_ANOMALY": 316.0501, "EPHEMERIS_TYPE": 0, "CLASSIFICATION_TYPE": "U", "NORAD_CAT_ID": 33932, "ELEMENT_SET_NO": 999, "REV_AT_EPOCH": 87915, "BSTAR": 0.00083411216, "MEAN_MOTION_DOT": 2.553e-05, "MEAN_MOTION_DDOT": 0}, "tle": {"line1": "1 33932U 93036EM  25340.97764778  .00002553  00000+0  83411-3 0  9994", "line2": "2 33932  74.0345 326.5449 0035012  44.3448 316.0501 14.38731777879150"}}, "geometry": {"type": "Point", "coordinates": [-25.797634468326315, 28.177400523606156]}}, {"type": "Feature", "properties": {"norad_id": 33933, "name": "COSMOS 2251 DEB", "group": "cosmos-2251-debris", "lat": -24.646857935223032, "lon": 61.96722319351921, "alt_km": 798.1613078916307, "timestamp": "2025-12-07T14:37:05.596660+00:00", "meta": {"OBJECT_NAME": "COSMOS 2251 DEB", "OBJECT_ID": "1993-036EN", "EPOCH": "2025-12-06T16:57:49.838112", "MEAN_MOTION": 14.3347377, "ECCENTRICITY": 0.00707766, "INCLINATION": 74.0893, "RA_OF_ASC_NODE": 71.1312, "ARG_OF_PERICENTER": 81.3426, "MEAN_ANOMALY": 279.5735, "EPHEMERIS_TYPE": 0, "CLASSIFICATION_TYPE": "U", "NORAD_CAT_ID": 33933, "ELEMENT_SET_NO": 999, "REV_AT_EPOCH": 87698, "BSTAR": 0.00056626884, "MEAN_MOTION_DOT": 1.584e-05, "MEAN_MOTION_DDOT": 0}, "tle": {"line1": "1 33933U 93036EN  25340.70682683  .00001584  00000+0  56627-3 0  9992", "line2": "2 33933  74.0893  71.1312 0070776  81.3426 279.5735 14.33473770876985"}}, "geometry": {"type": "Point", "coordinates": [61.96722319351921, -24.646857935223032]}}, {"type": "Feature", "properties": {"norad_id": 33934, "name": "COSMOS 2251 DEB", "group": "cosmos-2251-debris", "lat": -19.623451043044298, "lon": 104.48997036810127, "alt_km": 704.1385765586756, "timestamp": "2025-12-07T14:37:05.596670+00:00", "meta": {"OBJECT_NAME": "COSMOS 2251 DEB", "OBJECT_ID": "1993-036EP", "EPOCH": "2025-12-06T17:19:08.313600", "MEAN_MOTION": 14.5902434, "ECCENTRICITY": 0.00159078, "INCLINATION": 74.0381, "RA_OF_ASC_NODE": 112.037, "ARG_OF_PERICENTER": 235.7213, "MEAN_ANOMALY": 124.2446, "EPHEMERIS_TYPE": 0, "CLASSIFICATION_TYPE": "U", "NORAD_CAT_ID": 33934, "ELEMENT_SET_NO": 999, "REV_AT_EPOCH": 88651, "BSTAR": 0.0017517426, "MEAN_MOTION_DOT": 8.224e-05, "MEAN_MOTION_DDOT": 0}, "tle": {"line1": "1 33934U 93036EP  25340.72162400  .00008224  00000+0  17517-2 0  9997", "line2": "2 33934  74.0381 112.0370 0015907 235.7213 124.2446 14.59024340886519"}}, "geometry": {"type": "Point", "coordinates": [104.48997036810127, -19.623451043044298]}}, {"type": "Feature", "properties": {"norad_id": 33936, "name": "COSMOS 2251 DEB", "group": "cosmos-2251-debris", "lat": -61.50159488401499, "lon": -100.8501133238299, "alt_km": 684.6783194072732, "timestamp": "2025-12-07T14:37:05.596680+00:00", "meta": {"OBJECT_NAME": "COSMOS 2251 DEB", "OBJECT_ID": "1993-036ER", "EPOCH": "2025-12-06T21:03:09.580608", "MEAN_MOTION": 14.60211245, "ECCENTRICITY": 0.00279321, "INCLINATION": 74.0192, "RA_OF_ASC_NODE": 48.6885, "ARG_OF_PERICENTER": 205.1771, "MEAN_ANOMALY": 154.8035, "EPHEMERIS_TYPE": 0, "CLASSIFICATION_TYPE": "U", "NORAD_CAT_ID": 33936, "ELEMENT_SET_NO": 999, "REV_AT_EPOCH": 88804, "BSTAR": 0.0011935502, "MEAN_MOTION_DOT": 5.76e-05, "MEAN_MOTION_DDOT": 0}, "tle": {"line1": "1 33936U 93036ER  25340.87719422  .00005760  00000+0  11936-2 0  9998", "line2": "2 33936  74.0192  48.6885 0027932 205.1771 154.8035 14.60211245888044"}}, "geometry": {"type": "Point", "coordinates": [-100.8501133238299, -61.50159488401499]}}, {"type": "Feature", "properties": {"norad_id": 33938, "name": "COSMOS 2251 DEB", "group": "cosmos-2251-debris", "lat": -11.568530866230095, "lon": -146.60202478463788, "alt_km": 732.3205705498513, "timestamp": "2025-12-07T14:37:05.596690+00:00", "meta": {"OBJECT_NAME": "COSMOS 2251 DEB", "OBJECT_ID": "1993-036ET", "EPOCH": "2025-12-06T22:07:32.788992", "MEAN_MOTION": 14.46766613, "ECCENTRICITY": 0.00168718, "INCLINATION": 74.0458, "RA_OF_ASC_NODE": 218.0374, "ARG_OF_PERICENTER": 300.5876, "MEAN_ANOMALY": 69.6849, "EPHEMERIS_TYPE": 0, "CLASSIFICATION_TYPE": "U", "NORAD_CAT_ID": 33938, "ELEMENT_SET_NO": 999, "REV_AT_EPOCH": 88316, "BSTAR": 0.00078789048, "MEAN_MOTION_DOT": 2.831e-05, "MEAN_MOTION_DDOT": 0}, "tle": {"line1": "1 33938U 93036ET  25340.92190728  .00002831  00000+0  78789-3 0  9994", "line2": "2 33938  74.0458 218.0374 0016871 300.5876  69.6849 14.46766613883165"}}, "geometry": {"type": "Point", "coordinates": [-146.60202478463788, -11.568530866230095]}}]}